SES-1                   
1 36516U 10016A   24126.40053811 -.00000115  00000+0  00000+0 0  9992
2 36516   0.0390  78.3394 0002875 330.3165 218.2846  1.00269768 51288
